{
  "type": "FeatureCollection",
  "features": [
    {
      "type": "Feature",
      "properties": {
        "norad_id": 34874,
        "name": "COSMOS 2251 DEB",
        "group": "cosmos-2251-debris",
        "lat": 58.01664119795347,
        "lon": 104.27210751585382,
        "alt_km": 737.1413960615582,
        "timestamp": "2025-12-10T23:33:13.213323+00:00",
        "meta_object_name": "COSMOS 2251 DEB",
        "meta_object_id": "1993-036ACM",
        "meta_epoch": "2025-12-08T12:49:57.989280",
        "meta_mean_motion": 14.36277608,
        "meta_eccentricity": 0.00511791,
        "meta_inclination": 74.0397,
        "meta_ra_of_asc_node": 81.487,
        "meta_arg_of_pericenter": 108.123,
        "meta_mean_anomaly": 268.2931,
        "meta_ephemeris_type": 0,
        "meta_classification_type": "U",
        "meta_norad_cat_id": 34874,
        "meta_element_set_no": 999,
        "meta_rev_at_epoch": 86984,
        "meta_bstar": 0.0015220199,
        "meta_mean_motion_dot": 4.491e-05,
        "meta_mean_motion_ddot": 0,
        "tle_line1": "1 34874U 93036ACM 25342.53469895  .00004491  00000+0  15220-2 0  9991",
        "tle_line2": "2 34874  74.0397  81.4870 0051179 108.1230 268.2931 14.36277608869844"
      },
      "geometry": {
        "type": "Point",
        "coordinates": [
          104.27210751585382,
          58.01664119795347
        ]
      }
    },
    {
      "type": "Feature",
      "properties": {
        "norad_id": 34875,
        "name": "COSMOS 2251 DEB",
        "group": "cosmos-2251-debris",
        "lat": 33.81134224621765,
        "lon": 172.55765481779568,
        "alt_km": 730.7102332294671,
        "timestamp": "2025-12-10T23:33:13.213332+00:00",
        "meta_object_name": "COSMOS 2251 DEB",
        "meta_object_id": "1993-036ACN",
        "meta_epoch": "2025-12-08T22:15:07.367904",
        "meta_mean_motion": 14.48903769,
        "meta_eccentricity": 0.0016077,
        "meta_inclination": 74.0434,
        "meta_ra_of_asc_node": 165.3578,
        "meta_arg_of_pericenter": 289.2326,
        "meta_mean_anomaly": 195.3832,
        "meta_ephemeris_type": 0,
        "meta_classification_type": "U",
        "meta_norad_cat_id": 34875,
        "meta_element_set_no": 999,
        "meta_rev_at_epoch": 87700,
        "meta_bstar": 0.00057345,
        "meta_mean_motion_dot": 2.147e-05,
        "meta_mean_motion_ddot": 0,
        "tle_line1": "1 34875U 93036ACN 25342.92716861  .00002147  00000+0  57345-3 0  9994",
        "tle_line2": "2 34875  74.0434 165.3578 0016077 289.2326 195.3832 14.48903769877003"
      },
      "geometry": {
        "type": "Point",
        "coordinates": [
          172.55765481779568,
          33.81134224621765
        ]
      }
    },
    {
      "type": "Feature",
      "properties": {
        "norad_id": 34878,
        "name": "COSMOS 2251 DEB",
        "group": "cosmos-2251-debris",
        "lat": 63.749858417933986,
        "lon": -165.55805407829158,
        "alt_km": 1000.7998725173429,
        "timestamp": "2025-12-10T23:33:13.213341+00:00",
        "meta_object_name": "COSMOS 2251 DEB",
        "meta_object_id": "1993-036ACR",
        "meta_epoch": "2025-12-09T11:24:21.665664",
        "meta_mean_motion": 13.44185831,
        "meta_eccentricity": 0.04353122,
        "meta_inclination": 73.9652,
        "meta_ra_of_asc_node": 52.502,
        "meta_arg_of_pericenter": 36.6708,
        "meta_mean_anomaly": 343.8238,
        "meta_ephemeris_type": 0,
        "meta_classification_type": "U",
        "meta_norad_cat_id": 34878,
        "meta_element_set_no": 999,
        "meta_rev_at_epoch": 81229,
        "meta_bstar": 0.00088072379,
        "meta_mean_motion_dot": 8.84e-06,
        "meta_mean_motion_ddot": 0,
        "tle_line1": "1 34878U 93036ACR 25343.47525076  .00000884  00000+0  88072-3 0  9991",
        "tle_line2": "2 34878  73.9652  52.5020 0435312  36.6708 343.8238 13.44185831812297"
      },
      "geometry": {
        "type": "Point",
        "coordinates": [
          -165.55805407829158,
          63.749858417933986
        ]
      }
    },
    {
      "type": "Feature",
      "properties": {
        "norad_id": 34882,
        "name": "COSMOS 2251 DEB",
        "group": "cosmos-2251-debris",
        "lat": -69.80980630865103,
        "lon": 100.02043805357481,
        "alt_km": 703.5227078290782,
        "timestamp": "2025-12-10T23:33:13.213350+00:00",
        "meta_object_name": "COSMOS 2251 DEB",
        "meta_object_id": "1993-036ACV",
        "meta_epoch": "2025-12-10T02:39:44.422848",
        "meta_mean_motion": 14.61589215,
        "meta_eccentricity": 0.00827465,
        "meta_inclination": 74.0466,
        "meta_ra_of_asc_node": 230.6168,
        "meta_arg_of_pericenter": 358.2159,
        "meta_mean_anomaly": 1.8698,
        "meta_ephemeris_type": 0,
        "meta_classification_type": "U",
        "meta_norad_cat_id": 34882,
        "meta_element_set_no": 999,
        "meta_rev_at_epoch": 88486,
        "meta_bstar": 0.00027513472,
        "meta_mean_motion_dot": 1.403e-05,
        "meta_mean_motion_ddot": 0,
        "tle_line1": "1 34882U 93036ACV 25344.11093082  .00001403  00000+0  27513-3 0  9996",
        "tle_line2": "2 34882  74.0466 230.6168 0082746 358.2159   1.8698 14.61589215884868"
      },
      "geometry": {
        "type": "Point",
        "coordinates": [
          100.02043805357481,
          -69.80980630865103
        ]
      }
    },
    {
      "type": "Feature",
      "properties": {
        "norad_id": 34883,
        "name": "COSMOS 2251 DEB",
        "group": "cosmos-2251-debris",
        "lat": 10.411741313487447,
        "lon": 68.97878551212025,
        "alt_km": 755.1239684381189,
        "timestamp": "2025-12-10T23:33:13.213359+00:00",
        "meta_object_name": "COSMOS 2251 DEB",
        "meta_object_id": "1993-036ACW",
        "meta_epoch": "2025-12-10T05:18:22.813632",
        "meta_mean_motion": 14.51351166,
        "meta_eccentricity": 0.0094898,
        "meta_inclination": 74.1992,
        "meta_ra_of_asc_node": 67.4125,
        "meta_arg_of_pericenter": 252.9159,
        "meta_mean_anomaly": 106.1592,
        "meta_ephemeris_type": 0,
        "meta_classification_type": "U",
        "meta_norad_cat_id": 34883,
        "meta_element_set_no": 999,
        "meta_rev_at_epoch": 86403,
        "meta_bstar": 0.0070011,
        "meta_mean_motion_dot": 0.00029675,
        "meta_mean_motion_ddot": 0,
        "tle_line1": "1 34883U 93036ACW 25344.22109738  .00029675  00000+0  70011-2 0  9996",
        "tle_line2": "2 34883  74.1992  67.4125 0094898 252.9159 106.1592 14.51351166864034"
      },
      "geometry": {
        "type": "Point",
        "coordinates": [
          68.97878551212025,
          10.411741313487447
        ]
      }
    },
    {
      "type": "Feature",
      "properties": {
        "norad_id": 34884,
        "name": "COSMOS 2251 DEB",
        "group": "cosmos-2251-debris",
        "lat": 56.28127807320126,
        "lon": 85.69893402499318,
        "alt_km": 591.0993782782043,
        "timestamp": "2025-12-10T23:33:13.213373+00:00",
        "meta_object_name": "COSMOS 2251 DEB",
        "meta_object_id": "1993-036ACX",
        "meta_epoch": "2025-12-10T05:41:49.872192",
        "meta_mean_motion": 14.8986558,
        "meta_eccentricity": 0.0002359,
        "meta_inclination": 74.0169,
        "meta_ra_of_asc_node": 61.7548,
        "meta_arg_of_pericenter": 96.9395,
        "meta_mean_anomaly": 294.0838,
        "meta_ephemeris_type": 0,
        "meta_classification_type": "U",
        "meta_norad_cat_id": 34884,
        "meta_element_set_no": 999,
        "meta_rev_at_epoch": 87768,
        "meta_bstar": 0.0040899,
        "meta_mean_motion_dot": 0.00039512,
        "meta_mean_motion_ddot": 0,
        "tle_line1": "1 34884U 93036ACX 25344.23738278  .00039512  00000+0  40899-2 0  9997",
        "tle_line2": "2 34884  74.0169  61.7548 0002359  96.9395 294.0838 14.89865580877681"
      },
      "geometry": {
        "type": "Point",
        "coordinates": [
          85.69893402499318,
          56.28127807320126
        ]
      }
    },
    {
      "type": "Feature",
      "properties": {
        "norad_id": 34885,
        "name": "COSMOS 2251 DEB",
        "group": "cosmos-2251-debris",
        "lat": -9.107411365603605,
        "lon": 8.963893280205498,
        "alt_km": 723.0923743067979,
        "timestamp": "2025-12-10T23:33:13.213382+00:00",
        "meta_object_name": "COSMOS 2251 DEB",
        "meta_object_id": "1993-036ACY",
        "meta_epoch": "2025-12-10T12:52:39.641088",
        "meta_mean_motion": 14.51483314,
        "meta_eccentricity": 0.00152154,
        "meta_inclination": 74.0309,
        "meta_ra_of_asc_node": 187.1701,
        "meta_arg_of_pericenter": 272.7275,
        "meta_mean_anomaly": 113.3472,
        "meta_ephemeris_type": 0,
        "meta_classification_type": "U",
        "meta_norad_cat_id": 34885,
        "meta_element_set_no": 999,
        "meta_rev_at_epoch": 87447,
        "meta_bstar": 0.00091853363,
        "meta_mean_motion_dot": 3.65e-05,
        "meta_mean_motion_ddot": 0,
        "tle_line1": "1 34885U 93036ACY 25344.53656992  .00003650  00000+0  91853-3 0  9994",
        "tle_line2": "2 34885  74.0309 187.1701 0015215 272.7275 113.3472 14.51483314874479"
      },
      "geometry": {
        "type": "Point",
        "coordinates": [
          8.963893280205498,
          -9.107411365603605
        ]
      }
    }
  ]
}